NORAD_CAT_ID,OBJECT_NAME,OBJECT_TYPE,EPOCH,MEAN_MOTION,ECCENTRICITY,INCLINATION,RA_OF_ASC_NODE,ARG_OF_PERICENTER,MEAN_ANOMALY,BSTAR,MEAN_MOTION_DOT,MEAN_MOTION_DDOT,TLE_LINE0,TLE_LINE1,TLE_LINE2,SEMIMAJOR_AXIS,PERIOD,APOGEE,PERIGEE,DECAYED
55434.0,STARLINK-5621,PAYLOAD,2023-06-23 01:48:13,14.98335379,0.0003047,70.0002,82.1716,270.2701,89.8109,4.8874e-05,4.9e-06,0.0,0 STARLINK-5621,1 55434U 23014AV  23174.07515960  .00000490  00000-0  48874-4 0  9999,2 55434  70.0002  82.1716 0003047 270.2701  89.8109 14.98335379 21741,6950.176,96.107,574.159,569.924,0.0
55434.0,STARLINK-5621,PAYLOAD,2023-06-23 17:49:34,14.983239,0.0002975,70.0001,80.4867,271.2904,88.7914,5.8726e-05,6.08e-06,0.0,0 STARLINK-5621,1 55434U 23014AV  23174.74276579  .00000608  00000-0  58726-4 0  9991,2 55434  70.0001  80.4867 0002975 271.2904  88.7914 14.98323900 21843,6950.212,96.107,574.144,570.009,0.0
55434.0,STARLINK-5621,PAYLOAD,2023-06-25 03:28:23,14.98337713,0.0003051,69.9998,76.9534,270.4931,89.5878,3.7432e-05,3.54e-06,0.0,0 STARLINK-5621,1 55434U 23014AV  23176.14471875  .00000354  00000-0  37432-4 0  9992,2 55434  69.9998  76.9534 0003051 270.4931  89.5878 14.98337713 22052,6950.169,96.107,574.155,569.914,0.0
55434.0,STARLINK-5621,PAYLOAD,2023-06-25 16:17:28,14.98319829,0.0002947,69.9998,75.6069,269.4047,90.6774,0.00018019,2.057e-05,0.0,0 STARLINK-5621,1 55434U 23014AV  23176.67880503  .00002057  00000-0  18019-3 0  9993,2 55434  69.9998  75.6069 0002947 269.4047  90.6774 14.98319829 22135,6950.224,96.108,574.138,570.041,0.0
55434.0,STARLINK-5621,PAYLOAD,2023-06-26 01:54:16,14.98332802,0.0002934,69.9998,74.5968,269.7042,90.3781,0.00011472,1.276e-05,0.0,0 STARLINK-5621,1 55434U 23014AV  23177.07935917  .00001276  00000-0  11472-3 0  9996,2 55434  69.9998  74.5968 0002934 269.7042  90.3781 14.98332802 22192,6950.184,96.107,574.088,570.01,0.0
55434.0,STARLINK-5621,PAYLOAD,2023-06-26 16:19:29,14.98324569,0.0002949,70.0008,73.0831,266.4502,93.6319,5.8657e-05,6.07e-06,0.0,0 STARLINK-5621,1 55434U 23014AV  23177.68020465  .00000607  00000-0  58657-4 0  9990,2 55434  70.0008  73.0831 0002949 266.4502  93.6319 14.98324569 22285,6950.21,96.107,574.124,570.025,0.0
55434.0,STARLINK-5621,PAYLOAD,2023-06-27 19:33:46,14.98330333,0.0002973,70.0001,70.2204,268.2972,91.7846,-2.7592e-05,-4.22e-06,0.0,0 STARLINK-5621,1 55434U 23014AV  23178.81512427 -.00000422  00000-0 -27592-4 0  9991,2 55434  70.0001  70.2204 0002973 268.2972  91.7846 14.98330333 22458,6950.192,96.107,574.123,569.991,0.0
55434.0,STARLINK-5621,PAYLOAD,2023-06-29 02:00:19,14.98329062,0.0003005,70.0001,67.0223,269.7616,90.3199,5.4548e-05,5.58e-06,0.0,0 STARLINK-5621,1 55434U 23014AV  23180.08356336  .00000558  00000-0  54548-4 0  9997,2 55434  70.0001  67.0223 0003005 269.7616  90.3199 14.98329062 22645,6950.196,96.107,574.149,569.972,0.0
55434.0,STARLINK-5621,PAYLOAD,2023-06-30 16:27:33,14.98326824,0.00029,70.0004,62.9822,268.2651,91.8176,-1.2522e-05,-2.42e-06,0.0,0 STARLINK-5621,1 55434U 23014AV  23181.68580514 -.00000242  00000-0 -12522-4 0  9999,2 55434  70.0004  62.9822 0002900 268.2651  91.8176 14.98326824 22883,6950.203,96.107,574.083,570.052,0.0
55434.0,STARLINK-5621,PAYLOAD,2023-07-01 18:05:42,14.98333696,0.0002971,70.0003,60.2891,268.4888,91.5931,-1.9003e-05,-3.2e-06,0.0,0 STARLINK-5621,1 55434U 23014AV  23182.75396134 -.00000320  00000-0 -19003-4 0  9999,2 55434  70.0003  60.2891 0002971 268.4888  91.5931 14.98333696 23041,6950.181,96.107,574.111,569.982,0.0
55434.0,STARLINK-5621,PAYLOAD,2023-07-03 02:08:23,14.98332499,0.0003044,70.0001,56.9224,267.7357,92.3454,8.4805e-05,9.19e-06,0.0,0 STARLINK-5621,1 55434U 23014AV  23184.08915747  .00000919  00000-0  84805-4 0  9998,2 55434  70.0001  56.9224 0003044 267.7357  92.3454 14.98332499 23247,6950.185,96.107,574.166,569.935,0.0
55434.0,STARLINK-5621,PAYLOAD,2023-07-04 02:10:24,14.98330878,0.0003053,70.0,54.3974,267.8177,92.2633,-2.877e-06,-1.27e-06,0.0,0 STARLINK-5621,1 55434U 23014AV  23185.09056005 -.00000127  00000-0 -28770-5 0  9996,2 55434  70.0000  54.3974 0003053 267.8177  92.2633 14.98330878 23394,6950.19,96.107,574.177,569.933,0.0
55434.0,STARLINK-5621,PAYLOAD,2023-07-05 08:36:57,14.98329764,0.0003103,70.0,51.1991,268.9718,91.1085,-2.98e-05,-4.49e-06,0.0,0 STARLINK-5621,1 55434U 23014AV  23186.35900065 -.00000449  00000-0 -29800-4 0  9991,2 55434  70.0000  51.1991 0003103 268.9718  91.1085 14.98329764 23589,6950.194,96.107,574.215,569.902,0.0
55434.0,STARLINK-5621,PAYLOAD,2023-07-06 15:03:30,14.98330476,0.000316,70.0001,48.0008,269.0934,90.9863,1.4412e-05,7.9e-07,0.0,0 STARLINK-5621,1 55434U 23014AV  23187.62743942  .00000079  00000-0  14412-4 0  9991,2 55434  70.0001  48.0008 0003160 269.0934  90.9863 14.98330476 23773,6950.191,96.107,574.253,569.86,0.0
55434.0,STARLINK-5621,PAYLOAD,2023-07-07 16:41:39,14.98329613,0.0003121,70.0002,45.3075,268.7947,91.2855,8.0739e-06,3e-08,0.0,0 STARLINK-5621,1 55434U 23014AV  23188.69559904  .00000003  00000-0  80739-5 0  9995,2 55434  70.0002  45.3075 0003121 268.7947  91.2855 14.98329613 23939,6950.194,96.107,574.228,569.89,0.0
55434.0,STARLINK-5621,PAYLOAD,2023-07-08 18:19:48,14.98330955,0.0003089,70.0,42.6145,267.8962,92.1844,-1.08e-05,-2.22e-06,0.0,0 STARLINK-5621,1 55434U 23014AV  23189.76375797 -.00000222  00000-0 -10800-4 0  9996,2 55434  70.0000  42.6145 0003089 267.8962  92.1844 14.98330955 24092,6950.19,96.107,574.202,569.908,0.0
55434.0,STARLINK-5621,PAYLOAD,2023-07-09 18:21:49,14.9832869,0.0003119,70.0001,40.0895,269.4383,90.6418,-1.0689e-05,-2.21e-06,0.0,0 STARLINK-5621,1 55434U 23014AV  23190.76515900 -.00000221  00000-0 -10689-4 0  9994,2 55434  70.0001  40.0895 0003119 269.4383  90.6418 14.98328690 24246,6950.197,96.107,574.23,569.894,0.0
55434.0,STARLINK-5621,PAYLOAD,2023-07-10 19:59:58,14.98333218,0.0003202,70.0,37.3958,269.6708,90.4084,4.2179e-05,4.1e-06,0.0,0 STARLINK-5621,1 55434U 23014AV  23191.83331407  .00000410  00000-0  42179-4 0  9998,2 55434  70.0000  37.3958 0003202 269.6708  90.4084 14.98333218 24407,6950.183,96.107,574.273,569.822,0.0
55434.0,STARLINK-5621,PAYLOAD,2023-07-11 23:14:15,14.9832918,0.0003172,70.0002,34.5342,269.7743,90.3052,1.6721e-05,1.06e-06,0.0,0 STARLINK-5621,1 55434U 23014AV  23192.96823723  .00000106  00000-0  16721-4 0  9996,2 55434  70.0002  34.5342 0003172 269.7743  90.3052 14.98329180 24576,6950.195,96.107,574.265,569.856,0.0
55434.0,STARLINK-5621,PAYLOAD,2023-07-12 07:14:56,14.98313458,0.0003015,70.0003,33.6926,276.3599,83.7217,0.00027609,3.201e-05,0.0,0 STARLINK-5621,1 55434U 23014AV  23193.30204258  .00003201  00000-0  27609-3 0  9996,2 55434  70.0003  33.6926 0003015 276.3599  83.7217 14.98313458 24620,6950.244,96.108,574.205,570.014,0.0
55434.0,STARLINK-5621,PAYLOAD,2023-07-12 16:51:44,14.98331377,0.0003161,70.0002,32.6826,269.7628,90.3168,-2.1324e-06,-1.18e-06,0.0,0 STARLINK-5621,1 55434U 23014AV  23193.70259618 -.00000118  00000-0 -21324-5 0  9996,2 55434  70.0002  32.6826 0003161 269.7628  90.3168 14.98331377 24683,6950.189,96.107,574.251,569.857,0.0
55434.0,STARLINK-5621,PAYLOAD,2023-07-13 16:53:45,14.98328019,0.0003116,70.0002,30.1577,270.0198,90.0603,1.84e-05,1.27e-06,0.0,0 STARLINK-5621,1 55434U 23014AV  23194.70399685  .00000127  00000-0  18400-4 0  9994,2 55434  70.0002  30.1577 0003116 270.0198  90.0603 14.98328019 24833,6950.199,96.107,574.23,569.898,0.0
55434.0,STARLINK-5621,PAYLOAD,2023-07-13 23:18:17,14.98342862,0.0002595,70.0005,29.4842,263.6121,96.4743,-0.00015037,-1.887e-05,0.0,0 STARLINK-5621,1 55434U 23014AV  23194.97103155 -.00001887  00000-0 -15037-3 0  9996,2 55434  70.0005  29.4842 0002595 263.6121  96.4743 14.98342862 24877,6950.153,96.106,573.822,570.215,0.0
55434.0,STARLINK-5621,PAYLOAD,2023-07-14 05:42:50,14.98316702,0.0002985,70.0006,28.8113,270.4028,89.6789,0.00024712,2.856e-05,0.0,0 STARLINK-5621,1 55434U 23014AV  23195.23807906  .00002856  00000-0  24712-3 0  9996,2 55434  70.0006  28.8113 0002985 270.4028  89.6789 14.98316702 24910,6950.234,96.108,574.174,570.024,0.0
55434.0,STARLINK-5621,PAYLOAD,2023-07-14 16:55:45,14.98333027,0.0003117,70.0001,27.6329,268.2255,91.8547,2.7119e-05,2.31e-06,0.0,0 STARLINK-5621,1 55434U 23014AV  23195.70539282  .00000231  00000-0  27119-4 0  9997,2 55434  70.0001  27.6329 0003117 268.2255  91.8547 14.98333027 24989,6950.184,96.107,574.215,569.882,0.0
55434.0,STARLINK-5621,PAYLOAD,2023-07-15 18:33:55,14.98327466,0.0002992,70.0008,24.9402,268.6773,91.4043,-7.8722e-06,-1.87e-06,0.0,0 STARLINK-5621,1 55434U 23014AV  23196.77355652 -.00000187  00000-0 -78722-5 0  9991,2 55434  70.0008  24.9402 0002992 268.6773  91.4043 14.98327466 25143,6950.201,96.107,574.145,569.986,0.0
55434.0,STARLINK-5621,PAYLOAD,2023-07-16 18:35:55,14.98332085,0.0003084,70.0005,22.415,268.5943,91.4863,-1.3759e-05,-2.57e-06,0.0,0 STARLINK-5621,1 55434U 23014AV  23197.77495349 -.00000257  00000-0 -13759-4 0  9996,2 55434  70.0005  22.4150 0003084 268.5943  91.4863 14.98332085 25293,6950.186,96.107,574.195,569.908,0.0
55434.0,STARLINK-5621,PAYLOAD,2023-07-17 18:37:56,14.98328633,0.0003185,70.0005,19.8897,270.2456,89.8338,2.3137e-05,1.83e-06,0.0,0 STARLINK-5621,1 55434U 23014AV  23198.77635400  .00000183  00000-0  23137-4 0  9998,2 55434  70.0005  19.8897 0003185 270.2456  89.8338 14.98328633 25441,6950.197,96.107,574.276,569.848,0.0
55434.0,STARLINK-5621,PAYLOAD,2023-07-18 18:39:57,14.9833047,0.0003216,70.0004,17.3648,270.1856,89.8934,1.7283e-05,1.13e-06,0.0,0 STARLINK-5621,1 55434U 23014AV  23199.77775366  .00000113  00000-0  17283-4 0  9993,2 55434  70.0004  17.3648 0003216 270.1856  89.8934 14.98330470 25595,6950.191,96.107,574.292,569.821,0.0
55434.0,STARLINK-5621,PAYLOAD,2023-07-19 18:41:59,14.98327341,0.0003152,70.0006,14.8397,269.8204,90.2594,-4.58e-06,-1.48e-06,0.0,0 STARLINK-5621,1 55434U 23014AV  23200.77915626 -.00000148  00000-0 -45800-5 0  9998,2 55434  70.0006  14.8397 0003152 269.8204  90.2594 14.98327341 25749,6950.201,96.107,574.257,569.875,0.0
